[
    {
        "Altitude(m)": 558585.9681006377,
        "Argument of Periapsis(deg)": 0.013245982221427002,
        "Eccentricity": 0.0,
        "Inclination(deg)": 53.0,
        "Latitude(deg)": -19.00241544442501,
        "Longitude(deg)": -126.62028858682034,
        "Mean Anomaly(deg)": 203.8195857351552,
        "RAAN(deg)": 139.98028673705602,
        "Satellite Name": "Starlink Shell 1 627",
        "Satellite Number": 627,
        "Semi-Major Axis(m)": 6931778.249405717,
        "Time(s)": 380
    },
    {
        "Altitude(m)": 558741.010122555,
        "Argument of Periapsis(deg)": 0.013594560700938237,
        "Eccentricity": 0.0,
        "Inclination(deg)": 53.0,
        "Latitude(deg)": -19.487779744737733,
        "Longitude(deg)": -126.23977178704482,
        "Mean Anomaly(deg)": 204.44641693871188,
        "RAAN(deg)": 139.97976796697856,
        "Satellite Name": "Starlink Shell 1 627",
        "Satellite Number": 627,
        "Semi-Major Axis(m)": 6931778.249405717,
        "Time(s)": 390
    },
    {
        "Altitude(m)": 558897.5730316198,
        "Argument of Periapsis(deg)": 0.013943139180449475,
        "Eccentricity": 0.0,
        "Inclination(deg)": 53.0,
        "Latitude(deg)": -19.972115640419997,
        "Longitude(deg)": -125.85675131101578,
        "Mean Anomaly(deg)": 205.07324814226865,
        "RAAN(deg)": 139.97924919690107,
        "Satellite Name": "Starlink Shell 1 627",
        "Satellite Number": 627,
        "Semi-Major Axis(m)": 6931778.249405717,
        "Time(s)": 400
    },
    {
        "Altitude(m)": 559055.6027651844,
        "Argument of Periapsis(deg)": 0.014291717659960712,
        "Eccentricity": 0.0,
        "Inclination(deg)": 53.0,
        "Latitude(deg)": -20.45539004999598,
        "Longitude(deg)": -125.47114907976734,
        "Mean Anomaly(deg)": 205.7000793458253,
        "RAAN(deg)": 139.9787304268236,
        "Satellite Name": "Starlink Shell 1 627",
        "Satellite Number": 627,
        "Semi-Major Axis(m)": 6931778.249405717,
        "Time(s)": 410
    },
    {
        "Altitude(m)": 559215.0444572503,
        "Argument of Periapsis(deg)": 0.014640296139471948,
        "Eccentricity": 0.0,
        "Inclination(deg)": 53.0,
        "Latitude(deg)": -20.937569303980677,
        "Longitude(deg)": -125.08288648316031,
        "Mean Anomaly(deg)": 206.326910549382,
        "RAAN(deg)": 139.97821165674614,
        "Satellite Name": "Starlink Shell 1 627",
        "Satellite Number": 627,
        "Semi-Major Axis(m)": 6931778.249405717,
        "Time(s)": 420
    },
    {
        "Altitude(m)": 559375.84246291,
        "Argument of Periapsis(deg)": 0.014988874618983185,
        "Eccentricity": 0.0,
        "Inclination(deg)": 53.0,
        "Latitude(deg)": -21.418619123649734,
        "Longitude(deg)": -124.69188385147129,
        "Mean Anomaly(deg)": 206.9537417529387,
        "RAAN(deg)": 139.97769288666865,
        "Satellite Name": "Starlink Shell 1 627",
        "Satellite Number": 627,
        "Semi-Major Axis(m)": 6931778.249405717,
        "Time(s)": 430
    },
    {
        "Altitude(m)": 559537.9403831421,
        "Argument of Periapsis(deg)": 0.015337453098494424,
        "Eccentricity": 0.0,
        "Inclination(deg)": 53.0,
        "Latitude(deg)": -21.898504599334274,
        "Longitude(deg)": -124.29805992753029,
        "Mean Anomaly(deg)": 207.5805729564955,
        "RAAN(deg)": 139.9771741165912,
        "Satellite Name": "Starlink Shell 1 627",
        "Satellite Number": 627,
        "Semi-Major Axis(m)": 6931778.249405717,
        "Time(s)": 440
    },
    {
        "Altitude(m)": 559701.2810899843,
        "Argument of Periapsis(deg)": 0.01568603157800566,
        "Eccentricity": 0.0,
        "Inclination(deg)": 53.0,
        "Latitude(deg)": -22.37719016822801,
        "Longitude(deg)": -123.90133285235808,
        "Mean Anomaly(deg)": 208.20740416005216,
        "RAAN(deg)": 139.97665534651372,
        "Satellite Name": "Starlink Shell 1 627",
        "Satellite Number": 627,
        "Semi-Major Axis(m)": 6931778.249405717,
        "Time(s)": 450
    },
    {
        "Altitude(m)": 559865.8067520579,
        "Argument of Periapsis(deg)": 0.0160346100575169,
        "Eccentricity": 0.0,
        "Inclination(deg)": 53.0,
        "Latitude(deg)": -22.854639591704384,
        "Longitude(deg)": -123.5016196386365,
        "Mean Anomaly(deg)": 208.83423536360894,
        "RAAN(deg)": 139.97613657643623,
        "Satellite Name": "Starlink Shell 1 627",
        "Satellite Number": 627,
        "Semi-Major Axis(m)": 6931778.249405717,
        "Time(s)": 460
    },
    {
        "Altitude(m)": 560031.4588603962,
        "Argument of Periapsis(deg)": 0.016383188537028134,
        "Eccentricity": 0.0,
        "Inclination(deg)": 53.0,
        "Latitude(deg)": -23.330815932133415,
        "Longitude(deg)": -123.0988356449773,
        "Mean Anomaly(deg)": 209.46106656716557,
        "RAAN(deg)": 139.97561780635877,
        "Satellite Name": "Starlink Shell 1 627",
        "Satellite Number": 627,
        "Semi-Major Axis(m)": 6931778.249405717,
        "Time(s)": 470
    },
    {
        "Altitude(m)": 560198.1782546297,
        "Argument of Periapsis(deg)": 0.01673176701653937,
        "Eccentricity": 0.0,
        "Inclination(deg)": 53.0,
        "Latitude(deg)": -23.80568152919116,
        "Longitude(deg)": -122.69289556395977,
        "Mean Anomaly(deg)": 210.0878977707223,
        "RAAN(deg)": 139.9750990362813,
        "Satellite Name": "Starlink Shell 1 627",
        "Satellite Number": 627,
        "Semi-Major Axis(m)": 6931778.249405717,
        "Time(s)": 480
    },
    {
        "Altitude(m)": 560365.9051494546,
        "Argument of Periapsis(deg)": 0.017080345496050607,
        "Eccentricity": 0.0,
        "Inclination(deg)": 53.0,
        "Latitude(deg)": -24.27919797565924,
        "Longitude(deg)": -122.28371289829477,
        "Mean Anomaly(deg)": 210.71472897427913,
        "RAAN(deg)": 139.97458026620382,
        "Satellite Name": "Starlink Shell 1 627",
        "Satellite Number": 627,
        "Semi-Major Axis(m)": 6931778.249405717,
        "Time(s)": 490
    },
    {
        "Altitude(m)": 560534.579161396,
        "Argument of Periapsis(deg)": 0.017428923975561842,
        "Eccentricity": 0.0,
        "Inclination(deg)": 53.0,
        "Latitude(deg)": -24.751326092709817,
        "Longitude(deg)": -121.87119943810359,
        "Mean Anomaly(deg)": 211.34156017783573,
        "RAAN(deg)": 139.97406149612635,
        "Satellite Name": "Starlink Shell 1 627",
        "Satellite Number": 627,
        "Semi-Major Axis(m)": 6931778.249405717,
        "Time(s)": 500
    },
    {
        "Altitude(m)": 560704.1393358737,
        "Argument of Periapsis(deg)": 0.01777750245507308,
        "Eccentricity": 0.0,
        "Inclination(deg)": 53.0,
        "Latitude(deg)": -25.222025904670893,
        "Longitude(deg)": -121.45526625230795,
        "Mean Anomaly(deg)": 211.96839138139248,
        "RAAN(deg)": 139.9735427260489,
        "Satellite Name": "Starlink Shell 1 627",
        "Satellite Number": 627,
        "Semi-Major Axis(m)": 6931778.249405717,
        "Time(s)": 510
    },
    {
        "Altitude(m)": 560874.5241745041,
        "Argument of Periapsis(deg)": 0.018126080934584315,
        "Eccentricity": 0.0,
        "Inclination(deg)": 53.0,
        "Latitude(deg)": -25.691256613273616,
        "Longitude(deg)": -121.03582316851747,
        "Mean Anomaly(deg)": 212.59522258494914,
        "RAAN(deg)": 139.9730239559714,
        "Satellite Name": "Starlink Shell 1 627",
        "Satellite Number": 627,
        "Semi-Major Axis(m)": 6931778.249405717,
        "Time(s)": 520
    },
    {
        "Altitude(m)": 561045.6716626759,
        "Argument of Periapsis(deg)": 0.018474659414095554,
        "Eccentricity": 0.0,
        "Inclination(deg)": 53.0,
        "Latitude(deg)": -26.158976571381405,
        "Longitude(deg)": -120.61277825442878,
        "Mean Anomaly(deg)": 213.22205378850592,
        "RAAN(deg)": 139.97250518589394,
        "Satellite Name": "Starlink Shell 1 627",
        "Satellite Number": 627,
        "Semi-Major Axis(m)": 6931778.249405717,
        "Time(s)": 530
    },
    {
        "Altitude(m)": 561217.5192973437,
        "Argument of Periapsis(deg)": 0.018823237893606792,
        "Eccentricity": 0.0,
        "Inclination(deg)": 53.0,
        "Latitude(deg)": -26.625143256200108,
        "Longitude(deg)": -120.1860388137671,
        "Mean Anomaly(deg)": 213.84888499206264,
        "RAAN(deg)": 139.97198641581647,
        "Satellite Name": "Starlink Shell 1 627",
        "Satellite Number": 627,
        "Semi-Major Axis(m)": 6931778.249405717,
        "Time(s)": 540
    },
    {
        "Altitude(m)": 561390.0041150848,
        "Argument of Periapsis(deg)": 0.019171816373118027,
        "Eccentricity": 0.0,
        "Inclination(deg)": 53.0,
        "Latitude(deg)": -27.089713241977066,
        "Longitude(deg)": -119.75551087118507,
        "Mean Anomaly(deg)": 214.47571619561933,
        "RAAN(deg)": 139.97146764573898,
        "Satellite Name": "Starlink Shell 1 627",
        "Satellite Number": 627,
        "Semi-Major Axis(m)": 6931778.249405717,
        "Time(s)": 550
    },
    {
        "Altitude(m)": 561563.0627203207,
        "Argument of Periapsis(deg)": 0.019520394852629266,
        "Eccentricity": 0.0,
        "Inclination(deg)": 53.0,
        "Latitude(deg)": -27.552642172194084,
        "Longitude(deg)": -119.3210986591699,
        "Mean Anomaly(deg)": 215.1025473991761,
        "RAAN(deg)": 139.97094887566152,
        "Satellite Name": "Starlink Shell 1 627",
        "Satellite Number": 627,
        "Semi-Major Axis(m)": 6931778.249405717,
        "Time(s)": 560
    }
]